CCSDS_OMM_VERS,COMMENT,CREATION_DATE,ORIGINATOR,OBJECT_NAME,OBJECT_ID,CENTER_NAME,REF_FRAME,TIME_SYSTEM,MEAN_ELEMENT_THEORY,EPOCH,MEAN_MOTION,ECCENTRICITY,INCLINATION,RA_OF_ASC_NODE,ARG_OF_PERICENTER,MEAN_ANOMALY,EPHEMERIS_TYPE,CLASSIFICATION_TYPE,NORAD_CAT_ID,ELEMENT_SET_NO,REV_AT_EPOCH,BSTAR,MEAN_MOTION_DOT,MEAN_MOTION_DDOT,SEMIMAJOR_AXIS,PERIOD,APOAPSIS,PERIAPSIS,OBJECT_TYPE,RCS_SIZE,COUNTRY_CODE,LAUNCH_DATE,SITE,DECAY_DATE,FILE,GP_ID,TLE_LINE0,TLE_LINE1,TLE_LINE2
"2.0","GENERATED VIA SPACE-TRACK.ORG API","2009-01-06T16:02:00","18 SPCS","IRIDIUM 33","1997-051C","EARTH","TEME","UTC","SGP4","2009-01-05T21:36:16.720128","14.34214955","0.00022470","86.3991","136.2616","84.8048","275.3399","0","U","24946","999","59233","0.00002659600000","0.00000094","0.0000000000000","7155.818","100.403","779.290","776.075","PAYLOAD","LARGE","US","1997-09-14","TTMTR","","655478","69379217","0 IRIDIUM 33","1 24946U 97051C   09005.90019352 +.00000094 +00000-0 +26596-4 0  9995","2 24946 086.3991 136.2616 0002247 084.8048 275.3399 14.34214955592333"
"2.0","GENERATED VIA SPACE-TRACK.ORG API","2009-01-06T08:08:47","18 SPCS","IRIDIUM 33","1997-051C","EARTH","TEME","UTC","SGP4","2009-01-06T11:00:00.787679","14.34215276","0.00022190","86.3990","136.0285","83.0275","277.1173","0","U","24946","999","59241","0.00004274400000","0.00000139","0.0000000000000","7155.816","100.403","779.269","776.094","PAYLOAD","LARGE","US","1997-09-14","TTMTR","","655249","69104560","0 IRIDIUM 33","1 24946U 97051C   09006.45834245  .00000139  00000-0  42744-4 0  9995","2 24946 086.3990 136.0285 0002219 083.0275 277.1173 14.34215276592410"
"2.0","GENERATED VIA SPACE-TRACK.ORG API","2009-01-06T14:37:37","18 SPCS","COSMOS 2251","1993-036A","EARTH","TEME","UTC","SGP4","2009-01-06T15:58:15.475295","14.31133918","0.00168760","74.0364","81.0862","169.5268","190.6233","0","U","22675","999","81257","0.00001683600000","0.00000019","0.0000000000000","7166.084","100.619","800.043","775.856","PAYLOAD","LARGE","CIS","1993-06-16","PKMTR","","655425","69238773","0 COSMOS 2251","1 22675U 93036A   09006.66545689  .00000019  00000-0  16836-4 0  9995","2 22675 074.0364 081.0862 0016876 169.5268 190.6233 14.31133918812579"
"2.0","GENERATED VIA SPACE-TRACK.ORG API","2009-01-08T10:05:19","18 SPCS","IRIDIUM 33","1997-051C","EARTH","TEME","UTC","SGP4","2009-01-06T21:02:48.835967","14.34215455","0.00022370","86.3991","135.8536","83.3344","276.8106","0","U","24946","999","59247","0.00004845100000","0.00000155","0.0000000000000","7155.816","100.403","779.282","776.080","PAYLOAD","LARGE","US","1997-09-14","TTMTR","","656246","69397529","0 IRIDIUM 33","1 24946U 97051C   09006.87695412 +.00000155 +00000-0 +48451-4 0  9991","2 24946 086.3991 135.8536 0002237 083.3344 276.8106 14.34215455592474"
"2.0","GENERATED VIA SPACE-TRACK.ORG API","2009-01-07T06:34:42","18 SPCS","IRIDIUM 33","1997-051C","EARTH","TEME","UTC","SGP4","2009-01-07T12:07:00.913151","14.34215527","0.00022340","86.3990","135.5915","83.1457","276.9994","0","U","24946","999","59256","0.00004185600000","0.00000137","0.0000000000000","7155.816","100.403","779.279","776.082","PAYLOAD","LARGE","US","1997-09-14","TTMTR","","655665","69384722","0 IRIDIUM 33","1 24946U 97051C   09007.50487168  .00000137  00000-0  41856-4 0  9991","2 24946 086.3990 135.5915 0002234 083.1457 276.9994 14.34215527592567"
"2.0","GENERATED VIA SPACE-TRACK.ORG API","2009-01-07T08:12:07","18 SPCS","IRIDIUM 33","1997-051C","EARTH","TEME","UTC","SGP4","2009-01-07T12:07:00.913151","14.34215527","0.00022340","86.3990","135.5915","83.1457","276.9994","0","U","24946","999","59256","0.00004185600000","0.00000137","0.0000000000000","7155.816","100.403","779.279","776.082","PAYLOAD","LARGE","US","1997-09-14","TTMTR","","655785","69386892","0 IRIDIUM 33","1 24946U 97051C   09007.50487168  .00000137  00000-0  41856-4 0  9991","2 24946 086.3990 135.5915 0002234 083.1457 276.9994 14.34215527592567"
"2.0","GENERATED VIA SPACE-TRACK.ORG API","2009-01-07T23:57:14","18 SPCS","COSMOS 2251","1993-036A","EARTH","TEME","UTC","SGP4","2009-01-07T20:29:28.626720","14.31134053","0.00168410","74.0363","78.9221","167.0849","193.0736","0","U","22675","999","81274","0.00001893600000","0.00000024","0.0000000000000","7166.084","100.619","800.017","775.880","PAYLOAD","LARGE","CIS","1993-06-16","PKMTR","","656061","69389850","0 COSMOS 2251","1 22675U 93036A   09007.85380355  .00000024  00000-0  18936-4 0  9993","2 22675 074.0363 078.9221 0016841 167.0849 193.0736 14.31134053812747"
"2.0","GENERATED VIA SPACE-TRACK.ORG API","2009-01-08T10:37:23","18 SPCS","COSMOS 2251","1993-036A","EARTH","TEME","UTC","SGP4","2009-01-07T20:29:28.626720","14.31134053","0.00168410","74.0363","78.9221","167.0849","193.0736","0","U","22675","999","81274","0.00001893600000","0.00000024","0.0000000000000","7166.084","100.619","800.017","775.880","PAYLOAD","LARGE","CIS","1993-06-16","PKMTR","","656261","69410480","0 COSMOS 2251","1 22675U 93036A   09007.85380355 +.00000024 +00000-0 +18936-4 0  9993","2 22675 074.0363 078.9221 0016841 167.0849 193.0736 14.31134053812747"
"2.0","GENERATED VIA SPACE-TRACK.ORG API","2009-01-08T10:37:23","18 SPCS","IRIDIUM 33","1997-051C","EARTH","TEME","UTC","SGP4","2009-01-07T22:09:48.945887","14.34215725","0.00022580","86.3989","135.4166","83.7609","276.3841","0","U","24946","999","59262","0.00004908100000","0.00000157","0.0000000000000","7155.815","100.403","779.296","776.064","PAYLOAD","LARGE","US","1997-09-14","TTMTR","","656261","69410814","0 IRIDIUM 33","1 24946U 97051C   09007.92348317 +.00000157 +00000-0 +49081-4 0  9999","2 24946 086.3989 135.4166 0002258 083.7609 276.3841 14.34215725592625"
"2.0","GENERATED VIA SPACE-TRACK.ORG API","2009-01-08T06:49:55","18 SPCS","IRIDIUM 33","1997-051C","EARTH","TEME","UTC","SGP4","2009-01-08T09:53:04.980480","14.34215932","0.00022350","86.3990","135.2128","83.9455","276.1995","0","U","24946","999","59269","0.00005466500000","0.00000173","0.0000000000000","7155.814","100.403","779.279","776.080","PAYLOAD","LARGE","US","1997-09-14","TTMTR","","656191","69392869","0 IRIDIUM 33","1 24946U 97051C   09008.41186320  .00000173  00000-0  54665-4 0  9990","2 24946 086.3990 135.2128 0002235 083.9455 276.1995 14.34215932592694"
"2.0","GENERATED VIA SPACE-TRACK.ORG API","2009-01-09T07:45:56","18 SPCS","COSMOS 2251","1993-036A","EARTH","TEME","UTC","SGP4","2009-01-08T16:37:23.779775","14.31134113","0.00168070","74.0365","77.3947","165.3788","194.7850","0","U","22675","999","81286","0.00001842500000","0.00000023","0.0000000000000","7166.084","100.619","799.993","775.904","PAYLOAD","LARGE","CIS","1993-06-16","PKMTR","","656631","69423108","0 COSMOS 2251","1 22675U 93036A   09008.69263634 +.00000023 +00000-0 +18425-4 0  9998","2 22675 074.0365 077.3947 0016807 165.3788 194.7850 14.31134113812867"
"2.0","GENERATED VIA SPACE-TRACK.ORG API","2009-01-09T07:45:56","18 SPCS","IRIDIUM 33","1997-051C","EARTH","TEME","UTC","SGP4","2009-01-08T21:36:21.027168","14.34216054","0.00022370","86.3991","135.0089","82.7392","277.4057","0","U","24946","999","59276","0.00005260200000","0.00000167","0.0000000000000","7155.814","100.403","779.280","776.078","PAYLOAD","LARGE","US","1997-09-14","TTMTR","","656631","69423446","0 IRIDIUM 33","1 24946U 97051C   09008.90024337 +.00000167 +00000-0 +52602-4 0  9995","2 24946 086.3991 135.0089 0002237 082.7392 277.4057 14.34216054592765"
"2.0","GENERATED VIA SPACE-TRACK.ORG API","2009-01-08T22:58:44","18 SPCS","COSMOS 2251","1993-036A","EARTH","TEME","UTC","SGP4","2009-01-08T21:39:22.570848","14.31134137","0.00168520","74.0364","77.0127","164.9948","195.1712","0","U","22675","999","81289","0.00001801300000","0.00000022","0.0000000000000","7166.083","100.619","800.025","775.872","PAYLOAD","LARGE","CIS","1993-06-16","PKMTR","","656521","69416337","0 COSMOS 2251","1 22675U 93036A   09008.90234457  .00000022  00000-0  18013-4 0  9995","2 22675 074.0364 077.0127 0016852 164.9948 195.1712 14.31134137812897"
"2.0","GENERATED VIA SPACE-TRACK.ORG API","2009-01-09T06:31:16","18 SPCS","IRIDIUM 33","1997-051C","EARTH","TEME","UTC","SGP4","2009-01-09T11:00:05.076576","14.34216107","0.00022360","86.3991","134.7760","82.2409","277.9037","0","U","24946","999","59284","0.00004502700000","0.00000146","0.0000000000000","7155.814","100.403","779.279","776.079","PAYLOAD","LARGE","US","1997-09-14","TTMTR","","656614","69418510","0 IRIDIUM 33","1 24946U 97051C   09009.45839209  .00000146  00000-0  45027-4 0  9998","2 24946 086.3991 134.7760 0002236 082.2409 277.9037 14.34216107592841"
"2.0","GENERATED VIA SPACE-TRACK.ORG API","2009-01-09T08:00:39","18 SPCS","IRIDIUM 33","1997-051C","EARTH","TEME","UTC","SGP4","2009-01-09T11:00:05.076576","14.34216107","0.00022360","86.3991","134.7760","82.2409","277.9037","0","U","24946","999","59284","0.00004502700000","0.00000146","0.0000000000000","7155.814","100.403","779.279","776.079","PAYLOAD","LARGE","US","1997-09-14","TTMTR","","656718","69427453","0 IRIDIUM 33","1 24946U 97051C   09009.45839209  .00000146  00000-0  45027-4 0  9998","2 24946 086.3991 134.7760 0002236 082.2409 277.9037 14.34216107592841"
"2.0","GENERATED VIA SPACE-TRACK.ORG API","2009-01-10T08:48:56","18 SPCS","COSMOS 2251","1993-036A","EARTH","TEME","UTC","SGP4","2009-01-09T17:47:17.721311","14.31134043","0.00167600","74.0364","75.4846","163.2687","196.9018","0","U","22675","999","81301","0.00001024700000","0.00000001","0.0000000000000","7166.084","100.619","799.959","775.938","PAYLOAD","LARGE","CIS","1993-06-16","PKMTR","","657138","69438213","0 COSMOS 2251","1 22675U 93036A   09009.74117733 +.00000001 +00000-0 +10247-4 0  9993","2 22675 074.0364 075.4846 0016760 163.2687 196.9018 14.31134043813016"
